IRIDIUM 116             
1 43072U 17083C   24081.59772080  .00000118  00000+0  35246-4 0  9991
2 43072  86.3939 303.7145 0002064  83.3738 276.7693 14.34218409326987
IRIDIUM 130             
1 43073U 17083D   24081.56600808  .00000449  00000+0  15335-3 0  9990
2 43073  86.3951 303.9234 0002268  92.7533 267.3922 14.34219668326929
IRIDIUM 151             
1 43074U 17083E   24081.61040504  .00000124  00000+0  37147-4 0  9994
2 43074  86.3942 303.7485 0001725  86.1966 273.9427 14.34218557326952
IRIDIUM 134             
1 43075U 17083F   24081.57869338  .00000179  00000+0  56780-4 0  9998
2 43075  86.3942 303.7589 0002300  88.5299 271.6161 14.34219228326915
IRIDIUM 137             
1 43076U 17083G   24081.59137642  .00000225  00000+0  73339-4 0  9998
2 43076  86.3945 303.8295 0001923  77.0933 283.0478 14.34218153326983
IRIDIUM 141             
1 43077U 17083H   24081.58503607  .00000145  00000+0  44686-4 0  9990
2 43077  86.3939 303.7094 0002049  89.8192 270.3238 14.34218365326989
IRIDIUM 153             
1 43078U 17083J   24081.60698286  .00000113  00000+0  33186-4 0  9990
2 43078  86.3913 272.1296 0001866 103.7173 256.4231 14.34218083328095
IRIDIUM 131             
1 43079U 17083K   24081.57235010  .00000119  00000+0  35521-4 0  9990
2 43079  86.3946 303.8462 0002047  83.8537 276.2892 14.34218590326918
